STARLINK-36117          
1 66865U 25281T   26068.19492460  .00025471  00000+0  93134-3 0  9997
2 66865  43.0016 345.9355 0001709 245.5337 114.5336 15.27600059 16114
2025-313BE              
1 67482U 25313BE  26068.69721505  .00077178  00000+0  26504-2 0  9996
2 67482  97.3989 145.3568 0007208 335.3714  24.7181 15.29801687  7972
